{
    "links": {
        "self": "http://www.neowsapp.com/rest/v1/neo/3767932?api_key=iIulBulltgU6a56xZRHN4H3l9WmuAYTsLGpBGhQ2"
    },
    "id": "3767932",
    "neo_reference_id": "3767932",
    "name": "(2017 CE)",
    "designation": "2017 CE",
    "nasa_jpl_url": "http://ssd.jpl.nasa.gov/sbdb.cgi?sstr=3767932",
    "absolute_magnitude_h": 23.2,
    "estimated_diameter": {
        "kilometers": {
            "estimated_diameter_min": 0.0608912622,
            "estimated_diameter_max": 0.1361570015
        },
        "meters": {
            "estimated_diameter_min": 60.8912622106,
            "estimated_diameter_max": 136.1570015386
        },
        "miles": {
            "estimated_diameter_min": 0.0378360645,
            "estimated_diameter_max": 0.0846040122
        },
        "feet": {
            "estimated_diameter_min": 199.7744887109,
            "estimated_diameter_max": 446.7093369279
        }
    },
    "is_potentially_hazardous_asteroid": false,
    "close_approach_data": [
        {
            "close_approach_date": "2017-02-07",
            "close_approach_date_full": "2017-Feb-07 13:31",
            "epoch_date_close_approach": 1486474260000,
            "relative_velocity": {
                "kilometers_per_second": "17.9130251464",
                "kilometers_per_hour": "64486.890527166",
                "miles_per_hour": "40069.6459500605"
            },
            "miss_distance": {
                "astronomical": "0.2122234948",
                "lunar": "82.5549394772",
                "kilometers": "31748182.786036076",
                "miles": "19727406.0112708088"
            },
            "orbiting_body": "Earth"
        }
    ],
    "orbital_data": {
        "orbit_id": "3",
        "orbit_determination_date": "2017-04-06 08:20:20",
        "first_observation_date": "2017-01-29",
        "last_observation_date": "2017-02-11",
        "data_arc_in_days": 13,
        "observations_used": 31,
        "orbit_uncertainty": "9",
        "minimum_orbit_intersection": ".180064",
        "jupiter_tisserand_invariant": "5.493",
        "epoch_osculation": "2457785.5",
        "eccentricity": ".4785963602287275",
        "semi_major_axis": "1.086043006156617",
        "inclination": "28.97306696391306",
        "ascending_node_longitude": "123.9088521530821",
        "orbital_period": "413.3985620539598",
        "perihelion_distance": ".5662667763581946",
        "perihelion_argument": "135.985960193326",
        "aphelion_distance": "1.605819235955039",
        "perihelion_time": "2457872.217239552483",
        "mean_anomaly": "284.4839989675169",
        "mean_motion": ".870830314966142",
        "equinox": "J2000",
        "orbit_class": {
            "orbit_class_type": "APO",
            "orbit_class_description": "Near-Earth asteroid orbits which cross the Earth’s orbit similar to that of 1862 Apollo",
            "orbit_class_range": "a (semi-major axis) > 1.0 AU; q (perihelion) < 1.017 AU"
        }
    },
    "is_sentry_object": false
}